TEVEL2-3                
1 63218U 25052J   26068.64540225  .00020365  00000+0  69446-3 0  9991
2 63218  97.3994 324.7775 0004761 105.7353 254.4413 15.30377031 54855
STARLINK-35342          
1 66181U 25243E   26068.70709801  .00022539  00000+0  77067-3 0  9992
2 66181  53.1573 245.3681 0001089  48.9697 311.1397 15.30205220 20656
